[{"ORDINAL":"1","COMMENT":"GENERATED VIA SPACETRACK.ORG API","ORIGINATOR":"JSPOC","NORAD_CAT_ID":"32787","OBJECT_NAME":"COMPASS 1","OBJECT_TYPE":"PAYLOAD","CLASSIFICATION_TYPE":"U","INTLDES":"08021E","EPOCH":"2018-10-12 12:48:01","EPOCH_MICROSECONDS":"90080","MEAN_MOTION":"14.93140578","ECCENTRICITY":"0.0011658","INCLINATION":"97.5212","RA_OF_ASC_NODE":"303.5338","ARG_OF_PERICENTER":"333.1001","MEAN_ANOMALY":"26.9613","EPHEMERIS_TYPE":"0","ELEMENT_SET_NO":"999","REV_AT_EPOCH":"56746","BSTAR":"7.4853e-05","MEAN_MOTION_DOT":"7.28e-06","MEAN_MOTION_DDOT":"0","FILE":"2344096","TLE_LINE0":"0 COMPASS 1","TLE_LINE1":"1 32787U 08021E   18285.53334595  .00000728  00000-0  74853-4 0  9997","TLE_LINE2":"2 32787  97.5212 303.5338 0011658 333.1001  26.9613 14.93140578567469","OBJECT_ID":"2008-021E","OBJECT_NUMBER":"32787","SEMIMAJOR_AXIS":"6966.287","PERIOD":"96.441","APOGEE":"596.273","PERIGEE":"580.030"},{"ORDINAL":"1","COMMENT":"GENERATED VIA SPACETRACK.ORG API","ORIGINATOR":"JSPOC","NORAD_CAT_ID":"32789","OBJECT_NAME":"DELFI C3","OBJECT_TYPE":"PAYLOAD","CLASSIFICATION_TYPE":"U","INTLDES":"08021G","EPOCH":"2018-10-11 16:51:03","EPOCH_MICROSECONDS":"281184","MEAN_MOTION":"15.06359207","ECCENTRICITY":"0.0010976","INCLINATION":"97.4998","RA_OF_ASC_NODE":"336.5019","ARG_OF_PERICENTER":"257.9903","MEAN_ANOMALY":"102.0094","EPHEMERIS_TYPE":"0","ELEMENT_SET_NO":"999","REV_AT_EPOCH":"56922","BSTAR":"0.00013256","MEAN_MOTION_DOT":"1.892e-05","MEAN_MOTION_DDOT":"0","FILE":"2344207","TLE_LINE0":"0 DELFI C3","TLE_LINE1":"1 32789U 08021G   18284.70212131 +.00001892 +00000-0 +13256-3 0  9990","TLE_LINE2":"2 32789 097.4998 336.5019 0010976 257.9903 102.0094 15.06359207569220","OBJECT_ID":"2008-021G","OBJECT_NUMBER":"32789","SEMIMAJOR_AXIS":"6925.473","PERIOD":"95.594","APOGEE":"554.939","PERIGEE":"539.737"},{"ORDINAL":"1","COMMENT":"GENERATED VIA SPACETRACK.ORG API","ORIGINATOR":"JSPOC","NORAD_CAT_ID":"32791","OBJECT_NAME":"SEEDS","OBJECT_TYPE":"PAYLOAD","CLASSIFICATION_TYPE":"U","INTLDES":"08021J","EPOCH":"2018-10-11 14:30:45","EPOCH_MICROSECONDS":"324000","MEAN_MOTION":"14.90644611","ECCENTRICITY":"0.0013248","INCLINATION":"97.5338","RA_OF_ASC_NODE":"296.833","ARG_OF_PERICENTER":"357.808","MEAN_ANOMALY":"2.3079","EPHEMERIS_TYPE":"0","ELEMENT_SET_NO":"999","REV_AT_EPOCH":"56685","BSTAR":"4.1177e-05","MEAN_MOTION_DOT":"3.51e-06","MEAN_MOTION_DDOT":"0","FILE":"2343849","TLE_LINE0":"0 SEEDS","TLE_LINE1":"1 32791U 08021J   18284.60469125  .00000351  00000-0  41177-4 0  9992","TLE_LINE2":"2 32791  97.5338 296.8330 0013248 357.8080   2.3079 14.90644611566856","OBJECT_ID":"2008-021J","OBJECT_NUMBER":"32791","SEMIMAJOR_AXIS":"6974.061","PERIOD":"96.602","APOGEE":"605.165","PERIGEE":"586.687"},{"ORDINAL":"1","COMMENT":"GENERATED VIA SPACETRACK.ORG API","ORIGINATOR":"JSPOC","NORAD_CAT_ID":"32953","OBJECT_NAME":"YUBELEINY","OBJECT_TYPE":"PAYLOAD","CLASSIFICATION_TYPE":"U","INTLDES":"08025A","EPOCH":"2018-10-12 11:10:47","EPOCH_MICROSECONDS":"570304","MEAN_MOTION":"12.43085995","ECCENTRICITY":"0.0018354","INCLINATION":"82.5004","RA_OF_ASC_NODE":"299.7458","ARG_OF_PERICENTER":"316.456","MEAN_ANOMALY":"43.5077","EPHEMERIS_TYPE":"0","ELEMENT_SET_NO":"999","REV_AT_EPOCH":"47134","BSTAR":"7.5656e-05","MEAN_MOTION_DOT":"2e-07","MEAN_MOTION_DDOT":"0","FILE":"2344121","TLE_LINE0":"0 YUBELEINY","TLE_LINE1":"1 32953U 08025A   18285.46582836  .00000020  00000-0  75656-4 0  9998","TLE_LINE2":"2 32953  82.5004 299.7458 0018354 316.4560  43.5077 12.43085995471344","OBJECT_ID":"2008-025A","OBJECT_NUMBER":"32953","SEMIMAJOR_AXIS":"7871.685","PERIOD":"115.840","APOGEE":"1507.998","PERIGEE":"1479.102"},{"ORDINAL":"1","COMMENT":"GENERATED VIA SPACETRACK.ORG API","ORIGINATOR":"JSPOC","NORAD_CAT_ID":"33493","OBJECT_NAME":"PRISM (HITOMI)","OBJECT_TYPE":"PAYLOAD","CLASSIFICATION_TYPE":"U","INTLDES":"09002B","EPOCH":"2018-10-12 12:43:04","EPOCH_MICROSECONDS":"618848","MEAN_MOTION":"14.96358791","ECCENTRICITY":"0.0014294","INCLINATION":"98.1207","RA_OF_ASC_NODE":"192.0685","ARG_OF_PERICENTER":"292.0691","MEAN_ANOMALY":"67.9009","EPHEMERIS_TYPE":"0","ELEMENT_SET_NO":"999","REV_AT_EPOCH":"52789","BSTAR":"1.3118e-05","MEAN_MOTION_DOT":"8.5e-07","MEAN_MOTION_DDOT":"0","FILE":"2344103","TLE_LINE0":"0 PRISM (HITOMI)","TLE_LINE1":"1 33493U 09002B   18285.52991457  .00000085  00000-0  13118-4 0  9990","TLE_LINE2":"2 33493  98.1207 192.0685 0014294 292.0691  67.9009 14.96358791527896","OBJECT_ID":"2009-002B","OBJECT_NUMBER":"33493","SEMIMAJOR_AXIS":"6956.295","PERIOD":"96.233","APOGEE":"588.103","PERIGEE":"568.217"},{"ORDINAL":"1","COMMENT":"GENERATED VIA SPACETRACK.ORG API","ORIGINATOR":"JSPOC","NORAD_CAT_ID":"33498","OBJECT_NAME":"STARS (KUKAI)","OBJECT_TYPE":"PAYLOAD","CLASSIFICATION_TYPE":"U","INTLDES":"09002G","EPOCH":"2018-10-12 02:27:44","EPOCH_MICROSECONDS":"528544","MEAN_MOTION":"14.78871166","ECCENTRICITY":"0.0009837","INCLINATION":"98.3264","RA_OF_ASC_NODE":"120.857","ARG_OF_PERICENTER":"245.8267","MEAN_ANOMALY":"114.1915","EPHEMERIS_TYPE":"0","ELEMENT_SET_NO":"999","REV_AT_EPOCH":"52311","BSTAR":"3.8287e-05","MEAN_MOTION_DOT":"2.26e-06","MEAN_MOTION_DDOT":"0","FILE":"2343955","TLE_LINE0":"0 STARS (KUKAI)","TLE_LINE1":"1 33498U 09002G   18285.10259871  .00000226  00000-0  38287-4 0  9997","TLE_LINE2":"2 33498  98.3264 120.8570 0009837 245.8267 114.1915 14.78871166523118","OBJECT_ID":"2009-002G","OBJECT_NUMBER":"33498","SEMIMAJOR_AXIS":"7011.026","PERIOD":"97.371","APOGEE":"639.788","PERIGEE":"625.994"},{"ORDINAL":"1","COMMENT":"GENERATED VIA SPACETRACK.ORG API","ORIGINATOR":"JSPOC","NORAD_CAT_ID":"33499","OBJECT_NAME":"KKS-1 (KISEKI)","OBJECT_TYPE":"PAYLOAD","CLASSIFICATION_TYPE":"U","INTLDES":"09002H","EPOCH":"2018-10-12 12:13:24","EPOCH_MICROSECONDS":"614688","MEAN_MOTION":"14.75369035","ECCENTRICITY":"0.0007971","INCLINATION":"98.3578","RA_OF_ASC_NODE":"111.1134","ARG_OF_PERICENTER":"281.5311","MEAN_ANOMALY":"78.5002","EPHEMERIS_TYPE":"0","ELEMENT_SET_NO":"999","REV_AT_EPOCH":"52248","BSTAR":"2.3144e-05","MEAN_MOTION_DOT":"1.02e-06","MEAN_MOTION_DDOT":"0","FILE":"2344104","TLE_LINE0":"0 KKS-1 (KISEKI)","TLE_LINE1":"1 33499U 09002H   18285.50931267  .00000102  00000-0  23144-4 0  9997","TLE_LINE2":"2 33499  98.3578 111.1134 0007971 281.5311  78.5002 14.75369035522483","OBJECT_ID":"2009-002H","OBJECT_NUMBER":"33499","SEMIMAJOR_AXIS":"7022.117","PERIOD":"97.602","APOGEE":"649.579","PERIGEE":"638.384"},{"ORDINAL":"1","COMMENT":"GENERATED VIA SPACETRACK.ORG API","ORIGINATOR":"JSPOC","NORAD_CAT_ID":"35932","OBJECT_NAME":"SWISSCUBE","OBJECT_TYPE":"PAYLOAD","CLASSIFICATION_TYPE":"U","INTLDES":"09051B","EPOCH":"2018-10-12 09:15:29","EPOCH_MICROSECONDS":"480832","MEAN_MOTION":"14.56203331","ECCENTRICITY":"0.0007216","INCLINATION":"98.5611","RA_OF_ASC_NODE":"79.4728","ARG_OF_PERICENTER":"202.6665","MEAN_ANOMALY":"157.4215","EPHEMERIS_TYPE":"0","ELEMENT_SET_NO":"999","REV_AT_EPOCH":"48049","BSTAR":"4.6105e-05","MEAN_MOTION_DOT":"1.55e-06","MEAN_MOTION_DDOT":"0","FILE":"2344046","TLE_LINE0":"0 SWISSCUBE","TLE_LINE1":"1 35932U 09051B   18285.38575788  .00000155  00000-0  46105-4 0  9993","TLE_LINE2":"2 35932  98.5611  79.4728 0007216 202.6665 157.4215 14.56203331480492","OBJECT_ID":"2009-051B","OBJECT_NUMBER":"35932","SEMIMAJOR_AXIS":"7083.596","PERIOD":"98.887","APOGEE":"710.573","PERIGEE":"700.350"},{"ORDINAL":"1","COMMENT":"GENERATED VIA SPACETRACK.ORG API","ORIGINATOR":"JSPOC","NORAD_CAT_ID":"35933","OBJECT_NAME":"BEESAT","OBJECT_TYPE":"PAYLOAD","CLASSIFICATION_TYPE":"U","INTLDES":"09051C","EPOCH":"2018-10-12 09:42:58","EPOCH_MICROSECONDS":"44672","MEAN_MOTION":"14.56302061","ECCENTRICITY":"0.0005186","INCLINATION":"98.5648","RA_OF_ASC_NODE":"81.1134","ARG_OF_PERICENTER":"214.2438","MEAN_ANOMALY":"145.8425","EPHEMERIS_TYPE":"0","ELEMENT_SET_NO":"999","REV_AT_EPOCH":"48060","BSTAR":"3.6965e-05","MEAN_MOTION_DOT":"1.15e-06","MEAN_MOTION_DDOT":"0","FILE":"2344100","TLE_LINE0":"0 BEESAT","TLE_LINE1":"1 35933U 09051C   18285.40483848  .00000115  00000-0  36965-4 0  9991","TLE_LINE2":"2 35933  98.5648  81.1134 0005186 214.2438 145.8425 14.56302061480602","OBJECT_ID":"2009-051C","OBJECT_NUMBER":"35933","SEMIMAJOR_AXIS":"7083.276","PERIOD":"98.880","APOGEE":"708.814","PERIGEE":"701.468"},{"ORDINAL":"1","COMMENT":"GENERATED VIA SPACETRACK.ORG API","ORIGINATOR":"JSPOC","NORAD_CAT_ID":"35934","OBJECT_NAME":"UWE-2","OBJECT_TYPE":"PAYLOAD","CLASSIFICATION_TYPE":"U","INTLDES":"09051D","EPOCH":"2018-10-12 09:30:05","EPOCH_MICROSECONDS":"315904","MEAN_MOTION":"14.55798294","ECCENTRICITY":"0.0005801","INCLINATION":"98.5578","RA_OF_ASC_NODE":"77.6068","ARG_OF_PERICENTER":"219.258","MEAN_ANOMALY":"140.8196","EPHEMERIS_TYPE":"0","ELEMENT_SET_NO":"999","REV_AT_EPOCH":"48052","BSTAR":"3.0652e-05","MEAN_MOTION_DOT":"8.6e-07","MEAN_MOTION_DDOT":"0","FILE":"2344112","TLE_LINE0":"0 UWE-2","TLE_LINE1":"1 35934U 09051D   18285.39589486  .00000086  00000-0  30652-4 0  9999","TLE_LINE2":"2 35934  98.5578  77.6068 0005801 219.2580 140.8196 14.55798294480525","OBJECT_ID":"2009-051D","OBJECT_NUMBER":"35934","SEMIMAJOR_AXIS":"7084.910","PERIOD":"98.914","APOGEE":"710.885","PERIGEE":"702.665"},{"ORDINAL":"1","COMMENT":"GENERATED VIA SPACETRACK.ORG API","ORIGINATOR":"JSPOC","NORAD_CAT_ID":"35935","OBJECT_NAME":"ITUPSAT 1","OBJECT_TYPE":"PAYLOAD","CLASSIFICATION_TYPE":"U","INTLDES":"09051E","EPOCH":"2018-10-12 02:43:30","EPOCH_MICROSECONDS":"180864","MEAN_MOTION":"14.55473954","ECCENTRICITY":"0.0007526","INCLINATION":"98.5759","RA_OF_ASC_NODE":"81.0646","ARG_OF_PERICENTER":"213.5737","MEAN_ANOMALY":"146.4983","EPHEMERIS_TYPE":"0","ELEMENT_SET_NO":"999","REV_AT_EPOCH":"48033","BSTAR":"3.4494e-05","MEAN_MOTION_DOT":"1.02e-06","MEAN_MOTION_DDOT":"0","FILE":"2343939","TLE_LINE0":"0 ITUPSAT 1","TLE_LINE1":"1 35935U 09051E   18285.11354376  .00000102  00000-0  34494-4 0  9995","TLE_LINE2":"2 35935  98.5759  81.0646 0007526 213.5737 146.4983 14.55473954480333","OBJECT_ID":"2009-051E","OBJECT_NUMBER":"35935","SEMIMAJOR_AXIS":"7085.963","PERIOD":"98.936","APOGEE":"713.160","PERIGEE":"702.495"}]